ONEWEB-0309             
1 49095U 21075W   24095.76092610 -.00001284  00000+0 -33402-2 0  9993
2 49095  87.9234 165.7210 0002529 115.1384 245.0010 13.17655873127777
ONEWEB-0310             
1 49096U 21075X   24095.84853285  .00000122  00000+0  30506-3 0  9997
2 49096  87.8990 150.5856 0002015 105.1947 254.9404 13.12443337129816
ONEWEB-0311             
1 49097U 21075Y   24095.91912946  .00000040  00000+0  70906-4 0  9994
2 49097  87.9235 165.6905 0002526  97.1760 262.9659 13.17649774127842
ONEWEB-0312             
1 49098U 21075Z   24095.70555583  .00000026  00000+0  32712-4 0  9999
2 49098  87.9234 165.7649 0002555 107.8796 252.2614 13.17650008127797
ONEWEB-0313             
1 49099U 21075AA  24095.91122397  .00000010  00000+0 -75344-5 0  9999
2 49099  87.9235 165.7265 0002443 104.6857 255.4545 13.17649713127814
ONEWEB-0314             
1 49100U 21075AB  24095.90489382  .00000029  00000+0  41046-4 0  9991
2 49100  87.9231 165.6887 0002615 107.0617 253.0802 13.17650130127785
ONEWEB-0315             
1 49101U 21075AC  24095.89935763  .00000289  00000+0  76895-3 0  9996
2 49101  87.8980 150.5689 0001982  96.4708 263.6646 13.12445742129801
